[{"OBJECT_NAME":"STARLINK-5759","OBJECT_ID":"2023-020Z","EPOCH":"2026-03-09T22:00:01.999584","MEAN_MOTION":15.11213795,"ECCENTRICITY":7.655e-5,"INCLINATION":43.0001,"RA_OF_ASC_NODE":2.8746,"ARG_OF_PERICENTER":245.4266,"MEAN_ANOMALY":332.6605,"EPHEMERIS_TYPE":0,"CLASSIFICATION_TYPE":"U","NORAD_CAT_ID":55592,"ELEMENT_SET_NO":999,"REV_AT_EPOCH":573,"BSTAR":0.070837726,"MEAN_MOTION_DOT":0.01314943,"MEAN_MOTION_DDOT":0},{"OBJECT_NAME":"LILIUM-3","OBJECT_ID":"2025-276DJ","EPOCH":"2026-03-09T16:54:54.141120","MEAN_MOTION":15.18939749,"ECCENTRICITY":0.00011225,"INCLINATION":97.4313,"RA_OF_ASC_NODE":144.1145,"ARG_OF_PERICENTER":186.7966,"MEAN_ANOMALY":173.3253,"EPHEMERIS_TYPE":0,"CLASSIFICATION_TYPE":"U","NORAD_CAT_ID":66770,"ELEMENT_SET_NO":999,"REV_AT_EPOCH":1532,"BSTAR":0.00016352677,"MEAN_MOTION_DOT":3.348e-5,"MEAN_MOTION_DDOT":0}]
